#dP2023  4 12  0  0  0.00000000      96 __u+U ITR00 FIT  IAC
## 2257 259200.00000000   900.00000000 60046 0.0000000000000
+  120   C06C07C08C09C10C11C12C13C14C16C19C20C21C22C23C24C25
+        C26C27C28C29C30C32C33C34C35C36C37C38C39C40C41C42C43
+        C44C45C46E01E02E03E04E05E07E08E09E10E11E12E13E14E15
+        E18E19E21E24E25E26E27E30E31E33E34E36G01G02G03G04G05
+        G06G07G08G09G10G11G12G13G14G15G16G17G18G19G20G21G22
+        G23G24G25G26G27G28G29G30G31G32J02J03J04R01R02R03R04
+        R05R07R08R09R11R12R13R14R15R16R17R18R19R20R21R22R24
+        R25  0  0  0  0  0  0  0  0  0  0  0  0  0  0  0  0
++         0  0  0  0  0  0  0  0  0  0  0  0  0  0  0  0  0
++         0  0  0  0  0  0  0  0  0  0  0  0  0  0  0  0  0
++         0  0  0  0  0  0  0  0  0  0  0  0  0  0  0  0  0
++         0  0  0  0  0  0  0  0  0  0  0  0  0  0  0  0  0
++         0  0  0  0  0  0  0  0  0  0  0  0  0  0  0  0  0
++         0  0  0  0  0  0  0  0  0  0  0  0  0  0  0  0  0
++         0  0  0  0  0  0  0  0  0  0  0  0  0  0  0  0  0
++         0  0  0  0  0  0  0  0  0  0  0  0  0  0  0  0  0
%c M  cc GPS ccc cccc cccc cccc cccc ccccc ccccc ccccc ccccc
%c cc cc ccc ccc cccc cccc cccc cccc ccccc ccccc ccccc ccccc
%f  0.0000000  0.000000000  0.00000000000  0.000000000000000
%f  0.0000000  0.000000000  0.00000000000  0.000000000000000
%i    0    0    0    0      0      0      0      0         0
%i    0    0    0    0      0      0      0      0         0
/* INFORMATION & ANALYSIS CENTER (IAC)      ULTRA-RAPID DATA
/* S/V CLOCKS ARE ALIGNED TO GNSS TIME                      
/* G:C1WC2W R:C1PC2P E:C1XC5X C:C2IC6I J:C1CC2S             
/* PCV:IGS20_2247 OL/AL:FES2004  NONE     YN ORB:CoN CLK:CoN
*  2023 04 12 20 45  0.00000000
PC06  -6322.804381  23957.738225  34159.182289   -197.153783
PC07 -18281.258056  35549.594824 -13640.976365    137.744740
PC08  -2689.861864  38229.863647 -17374.088683    505.912135
PC09   4114.958681  27212.240847  32500.692261    774.369258
PC10 -11435.056100  35737.582797 -19429.573614    -31.727005
PC11  -5624.421880 -16094.711504  22157.219497    296.969125
PC12  14927.447087 -11133.951415  20815.119068    567.617371
PC13   1978.897435  40508.009778 -10890.629927    251.369102
PC14   2710.597527 -21758.795493 -17202.407454    115.035674
PC16  -9389.890439  22326.148303  34737.059147    111.220760
PC19   5960.820438  16235.607804  21937.801121   -900.755822
PC20  -9662.233753  23658.479800  11271.377856    629.041638
PC21  20714.573395 -17273.807381   7126.236036   -909.855804
PC22  18934.022692   -894.988586  20475.967955   -538.960049
PC23 -18021.463615 -11184.922111  18136.509651   -904.585265
PC24   1837.868105 -24132.166512 -13927.994355   -178.993811
PC25 -12736.666476 -24522.800908   3959.587340    105.471422
PC26  13044.237967 -10592.392696 -22299.878642   -105.378883
PC27 -22148.682858   6882.803094 -15529.311523    124.691236
PC28 -27458.814978  -4971.175612   -141.582328     91.798576
PC29  16748.456026  14433.652549 -17039.842506    106.299540
PC30  -4597.488194  15417.839597 -22810.253420      0.438587
PC32 -20586.471880  17446.120120  -7124.706111   -580.234701
PC33  -6011.992030 -16243.307757 -21864.896494   -873.319945
PC34   3179.220886 -15702.003516  22834.307443    147.561212
PC35  27541.138628   4585.400030   -762.361753    647.233187
PC36  11746.611635  25095.992713  -3263.263581   -504.938717
PC37 -13942.982393   8885.691845  22487.965550   -790.606523
PC38  -8337.332704  33842.302502 -23596.035170     71.353635
PC39 -15166.454919  20012.099734  33888.775512     -2.521337
PC40 -25266.710173  31268.230279 -13115.661730    -20.171726
PC41 -18671.061751    366.975225 -20681.021798   -842.609161
PC42  10682.269825 -23716.394455 -10020.683310   -740.109466
PC43 -15905.023467 -14793.185760  17492.221266     16.398351
PC44  22083.474517  -7632.643039  15268.733653     73.990382
PC45  17936.376157  10745.933076 -18474.026983    -84.258596
PC46   -584.017725  24819.900048  12701.071570    -46.545397
PE01  -8148.397382 -21937.893947  18124.276368     -2.255522
PE02   8454.291325  21548.536472 -18446.455631     31.975887
PE03  15320.246428  11547.827662  22542.667226   -668.584378
PE04 -27789.414945   1986.736833  -9987.615322    -99.206572
PE05  -6470.343268  18598.508269  22110.173092    -77.377723
PE07  24298.106142 -14565.639965  -8552.143497    -37.121332
PE08  27692.911832  -1893.278815  10271.931580    -66.367206
PE09 -24397.788400  14497.299139   8445.861016   -902.651051
PE10 -21011.100233   -517.966560 -20850.316524   -526.021782
PE11 -13797.158863   9054.655458 -24582.182741   1584.639607
PE12 -24315.246681  -9107.127735 -14194.058934   -496.197420
PE13  14423.128349  -8291.935060  24484.581070    -18.488103
PE14  24652.344115   -536.980659  -5772.796426    195.358025
PE15  24377.254645   9409.658178  13922.578702    -14.141048
PE18 -28945.747897  11202.094029  -6141.768312   -172.924793
PE19 -12611.717037 -12942.252020 -23430.018787  -2780.830795
PE21   4019.413430 -29199.586379   2740.560887   -523.014027
PE24 -15284.736633  19687.271643  15931.263319    -40.778551
PE25  -4238.147144  29191.084452  -2425.352990   -603.157208
PE26  -4496.027815 -21316.234526  20037.136089     73.389872
PE27  14922.981022 -20416.659971 -15395.094056    -23.557240
PE30  16880.628069   1050.906313 -24307.253532    -87.853481
PE31 -16926.735619   -312.222071  24282.033518   -521.126559
PE33 -19854.482034 -21415.926466   4778.974008   -446.499786
PE34  19985.850363  21339.763713  -4633.341844    -39.889508
PE36   3869.622545  20932.568020 -20574.842282    -40.421270
PG01  21340.277189  13390.186128   8632.242827    193.868359
PG02 -20828.185602  -3265.018808 -15570.513783   -606.635177
PG03  13887.148359   5246.743077  21903.485114   -330.612648
PG04  24405.705254   1511.987810  10520.441404     15.313064
PG05  -6780.718707 -20530.611086 -15516.003381   -123.160205
PG06   2687.549628 -16467.913384  20701.307045    586.586045
PG07  19034.506156    343.249353 -18269.732503    202.771585
PG08  16293.108585   8989.019548 -19165.962783   -117.441988
PG09  25509.334147  -7458.493492    540.439816   -181.348593
PG10 -11135.546936  22515.151545  -7955.688245    -32.558413
PG11  -9871.347965 -21987.989747  11208.268775   -160.423606
PG12 -12711.319091  -8678.081848  21374.559575   -363.146784
PG13  -8394.385713 -13643.417895 -21393.606137    504.805154
PG14  13509.499189 -20302.622608 -10342.778422     23.214678
PG15 -17602.154728  -7603.529582 -18938.573933     30.053803
PG16   2353.716257  22473.705703 -13882.279066   -509.281141
PG17  19015.358617 -13408.910882  13333.865338    710.266542
PG18 -16430.911420   3354.310827 -20632.713120   -221.378211
PG19  10467.445643 -14904.355187  18997.241456    302.800183
PG20  -2362.811859 -25837.055621  -6127.421448    439.410400
PG21  21273.123572  16668.167277    782.784690    154.238380
PG22  -6483.585555  15930.067128  20644.377064    462.968163
PG23 -15070.809952  13016.633574 -17494.748051     16.423835
PG24 -22134.005930 -14550.639041   3627.832622   -149.281083
PG25 -15906.988420   3729.570775  20575.088744    435.111844
PG26  -4026.423209  26050.735327   -940.810908    241.772348
PG27   4621.755496  14458.523686 -22044.517018     60.359093
PG28  -4235.151493  15808.029296  20892.990085     63.789952
PG29 -26157.764507   2488.538251   4118.247938   -595.236265
PG30  10748.009751 -11448.647756 -21310.827504   -522.677083
PG31   2267.365713  19713.101076  17271.143511   -213.821275
PG32 -15854.815307  15425.696688  14731.611718   -449.783976
PJ02 -30051.079479  26547.342923  17933.730492     -1.501683
PJ03 -27765.719233  15907.791816 -22850.357588      2.208900
PJ04 -25128.387179  33406.552494   -918.084009     94.184851
PR01  13237.735685 -18705.672823 -11180.461991     26.543170
PR02  -2031.239636 -11921.760770 -22417.291118    -22.960866
PR03 -16039.324768   1208.973062 -19725.646091     75.897654
PR04 -20828.592628  13324.752706  -6212.879169    183.062132
PR05 -14375.760360  18147.061630  10703.538034    110.853001
PR07  16570.333818  -1852.457850  19368.379144     53.679070
PR08  20805.777256 -13467.931774   6158.591364    -70.318776
PR09   7689.210931  23636.656105  -5895.231027    114.361425
PR11   9660.070932  -6692.045009 -22630.107442    -34.875176
PR12   1607.530473 -22649.016552 -11618.979831     26.393909
PR13  -6618.287823 -24289.606975   4099.561738    -33.918612
PR14 -11776.819290 -11023.838023  19761.448131     24.534344
PR15  -9497.230805   7902.197175  22332.298312     89.837057
PR16  -1545.338268  22480.540771  11991.780047     13.438036
PR17 -23901.940728  -8957.205187    -64.244057    620.638237
PR18 -20082.360056   -218.322787 -15678.141072     76.204413
PR19  -7615.805490   7893.569550 -23032.315991   -228.826828
PR20  13321.603530  13750.444162 -16878.910863    -90.991510
PR21  24023.879751   8356.717300   1784.573535      0.483900
PR22  19696.703687    106.729388  16242.923046     79.047777
PR24 -14152.575866 -13608.259315  16301.543621    161.415640
PR25  23398.503989  10138.676857   -139.970169     61.192088
EOF
